{
  "type": "FeatureCollection",
  "features": [
    {
      "type": "Feature",
      "properties": {
        "norad_id": 25590,
        "name": "COSMOS 2361",
        "group": "musson",
        "lat": 47.07839098268183,
        "lon": 151.98162056736382,
        "alt_km": 993.4916366268808,
        "timestamp": "2025-12-18T17:50:15.226853+00:00",
        "meta_object_name": "COSMOS 2361",
        "meta_object_id": "1998-076A",
        "meta_epoch": "2025-12-18T05:00:11.046816",
        "meta_mean_motion": 13.73218191,
        "meta_eccentricity": 0.00301212,
        "meta_inclination": 82.934,
        "meta_ra_of_asc_node": 340.0414,
        "meta_arg_of_pericenter": 249.7458,
        "meta_mean_anomaly": 120.7432,
        "meta_ephemeris_type": 0,
        "meta_classification_type": "U",
        "meta_norad_cat_id": 25590,
        "meta_element_set_no": 999,
        "meta_rev_at_epoch": 35186,
        "meta_bstar": 6.0099415e-05,
        "meta_mean_motion_dot": 7.1e-07,
        "meta_mean_motion_ddot": 0,
        "tle_line1": "1 25590U 98076A   25352.20846119  .00000071  00000+0  60099-4 0  9994",
        "tle_line2": "2 25590  82.9340 340.0414 0030121 249.7458 120.7432 13.73218191351869"
      },
      "geometry": {
        "type": "Point",
        "coordinates": [
          151.98162056736382,
          47.07839098268183
        ]
      }
    },
    {
      "type": "Feature",
      "properties": {
        "norad_id": 26818,
        "name": "COSMOS 2378",
        "group": "musson",
        "lat": -45.14069682022025,
        "lon": -177.55970246503094,
        "alt_km": 972.2837461912022,
        "timestamp": "2025-12-18T17:50:15.226874+00:00",
        "meta_object_name": "COSMOS 2378",
        "meta_object_id": "2001-023A",
        "meta_epoch": "2025-12-18T06:18:50.377248",
        "meta_mean_motion": 13.74142475,
        "meta_eccentricity": 0.0032736,
        "meta_inclination": 82.9271,
        "meta_ra_of_asc_node": 355.6291,
        "meta_arg_of_pericenter": 189.333,
        "meta_mean_anomaly": 182.02,
        "meta_ephemeris_type": 0,
        "meta_classification_type": "U",
        "meta_norad_cat_id": 26818,
        "meta_element_set_no": 999,
        "meta_rev_at_epoch": 22999,
        "meta_bstar": 4.6878855e-05,
        "meta_mean_motion_dot": 5.9e-07,
        "meta_mean_motion_ddot": 0,
        "tle_line1": "1 26818U 01023A   25352.26308307  .00000059  00000+0  46879-4 0  9998",
        "tle_line2": "2 26818  82.9271 355.6291 0032736 189.3330 182.0200 13.74142475229997"
      },
      "geometry": {
        "type": "Point",
        "coordinates": [
          -177.55970246503094,
          -45.14069682022025
        ]
      }
    },
    {
      "type": "Feature",
      "properties": {
        "norad_id": 27436,
        "name": "COSMOS 2389",
        "group": "musson",
        "lat": 81.65875471534245,
        "lon": 64.98517180604365,
        "alt_km": 951.1722029109433,
        "timestamp": "2025-12-18T17:50:15.226887+00:00",
        "meta_object_name": "COSMOS 2389",
        "meta_object_id": "2002-026A",
        "meta_epoch": "2025-12-18T07:38:55.895136",
        "meta_mean_motion": 13.75155283,
        "meta_eccentricity": 0.00474566,
        "meta_inclination": 82.9507,
        "meta_ra_of_asc_node": 302.8546,
        "meta_arg_of_pericenter": 45.5781,
        "meta_mean_anomaly": 107.989,
        "meta_ephemeris_type": 0,
        "meta_classification_type": "U",
        "meta_norad_cat_id": 27436,
        "meta_element_set_no": 999,
        "meta_rev_at_epoch": 18225,
        "meta_bstar": 3.9497563e-05,
        "meta_mean_motion_dot": 5.4e-07,
        "meta_mean_motion_ddot": 0,
        "tle_line1": "1 27436U 02026A   25352.31870249  .00000054  00000+0  39498-4 0  9998",
        "tle_line2": "2 27436  82.9507 302.8546 0047456  45.5781 107.9890 13.75155283182251"
      },
      "geometry": {
        "type": "Point",
        "coordinates": [
          64.98517180604365,
          81.65875471534245
        ]
      }
    },
    {
      "type": "Feature",
      "properties": {
        "norad_id": 27818,
        "name": "COSMOS 2398",
        "group": "musson",
        "lat": -13.42003959455185,
        "lon": -93.41793622033826,
        "alt_km": 1003.3134202444635,
        "timestamp": "2025-12-18T17:50:15.226899+00:00",
        "meta_object_name": "COSMOS 2398",
        "meta_object_id": "2003-023A",
        "meta_epoch": "2025-12-18T06:27:24.026976",
        "meta_mean_motion": 13.72386288,
        "meta_eccentricity": 0.00327295,
        "meta_inclination": 82.9484,
        "meta_ra_of_asc_node": 268.6238,
        "meta_arg_of_pericenter": 97.0129,
        "meta_mean_anomaly": 68.4031,
        "meta_ephemeris_type": 0,
        "meta_classification_type": "U",
        "meta_norad_cat_id": 27818,
        "meta_element_set_no": 999,
        "meta_rev_at_epoch": 12892,
        "meta_bstar": 4.535584e-05,
        "meta_mean_motion_dot": 5.7e-07,
        "meta_mean_motion_ddot": 0,
        "tle_line1": "1 27818U 03023A   25352.26902809  .00000057  00000+0  45356-4 0  9995",
        "tle_line2": "2 27818  82.9484 268.6238 0032729  97.0129  68.4031 13.72386288128921"
      },
      "geometry": {
        "type": "Point",
        "coordinates": [
          -93.41793622033826,
          -13.42003959455185
        ]
      }
    },
    {
      "type": "Feature",
      "properties": {
        "norad_id": 28380,
        "name": "COSMOS 2407",
        "group": "musson",
        "lat": -82.38922738042747,
        "lon": 96.08270707388348,
        "alt_km": 1003.800431113641,
        "timestamp": "2025-12-18T17:50:15.226909+00:00",
        "meta_object_name": "COSMOS 2407",
        "meta_object_id": "2004-028A",
        "meta_epoch": "2025-12-18T03:08:28.062240",
        "meta_mean_motion": 13.7631431,
        "meta_eccentricity": 0.00401077,
        "meta_inclination": 82.96,
        "meta_ra_of_asc_node": 208.9012,
        "meta_arg_of_pericenter": 40.1735,
        "meta_mean_anomaly": 74.9529,
        "meta_ephemeris_type": 0,
        "meta_classification_type": "U",
        "meta_norad_cat_id": 28380,
        "meta_element_set_no": 999,
        "meta_rev_at_epoch": 7497,
        "meta_bstar": 6.8711859e-05,
        "meta_mean_motion_dot": 8.3e-07,
        "meta_mean_motion_ddot": 0,
        "tle_line1": "1 28380U 04028A   25352.13088035  .00000083  00000+0  68712-4 0  9998",
        "tle_line2": "2 28380  82.9600 208.9012 0040107  40.1735  74.9529 13.76314310 74974"
      },
      "geometry": {
        "type": "Point",
        "coordinates": [
          96.08270707388348,
          -82.38922738042747
        ]
      }
    },
    {
      "type": "Feature",
      "properties": {
        "norad_id": 28521,
        "name": "COSMOS 2414",
        "group": "musson",
        "lat": 59.81845924487711,
        "lon": -167.59270154400738,
        "alt_km": 916.0822257029249,
        "timestamp": "2025-12-18T17:50:15.226920+00:00",
        "meta_object_name": "COSMOS 2414",
        "meta_object_id": "2005-002A",
        "meta_epoch": "2025-12-18T05:26:06.335808",
        "meta_mean_motion": 13.87903685,
        "meta_eccentricity": 0.00411842,
        "meta_inclination": 82.9488,
        "meta_ra_of_asc_node": 180.5109,
        "meta_arg_of_pericenter": 124.3895,
        "meta_mean_anomaly": 236.1174,
        "meta_ephemeris_type": 0,
        "meta_classification_type": "U",
        "meta_norad_cat_id": 28521,
        "meta_element_set_no": 999,
        "meta_rev_at_epoch": 5871,
        "meta_bstar": 5.5052332e-05,
        "meta_mean_motion_dot": 8.2e-07,
        "meta_mean_motion_ddot": 0,
        "tle_line1": "1 28521U 05002A   25352.22646222  .00000082  00000+0  55052-4 0  9998",
        "tle_line2": "2 28521  82.9488 180.5109 0041184 124.3895 236.1174 13.87903685 58718"
      },
      "geometry": {
        "type": "Point",
        "coordinates": [
          -167.59270154400738,
          59.81845924487711
        ]
      }
    },
    {
      "type": "Feature",
      "properties": {
        "norad_id": 32052,
        "name": "COSMOS 2429",
        "group": "musson",
        "lat": -78.3556870223743,
        "lon": -57.83455319032712,
        "alt_km": 994.3897657699563,
        "timestamp": "2025-12-18T17:50:15.226930+00:00",
        "meta_object_name": "COSMOS 2429",
        "meta_object_id": "2007-038A",
        "meta_epoch": "2025-12-18T00:45:56.391552",
        "meta_mean_motion": 13.75149953,
        "meta_eccentricity": 0.00389545,
        "meta_inclination": 82.9804,
        "meta_ra_of_asc_node": 339.4071,
        "meta_arg_of_pericenter": 23.3789,
        "meta_mean_anomaly": 336.9128,
        "meta_ephemeris_type": 0,
        "meta_classification_type": "U",
        "meta_norad_cat_id": 32052,
        "meta_element_set_no": 999,
        "meta_rev_at_epoch": 91675,
        "meta_bstar": 5.3231128e-05,
        "meta_mean_motion_dot": 6.6e-07,
        "meta_mean_motion_ddot": 0,
        "tle_line1": "1 32052U 07038A   25352.03190268  .00000066  00000+0  53231-4 0  9995",
        "tle_line2": "2 32052  82.9804 339.4071 0038954  23.3789 336.9128 13.75149953916750"
      },
      "geometry": {
        "type": "Point",
        "coordinates": [
          -57.83455319032712,
          -78.3556870223743
        ]
      }
    },
    {
      "type": "Feature",
      "properties": {
        "norad_id": 35635,
        "name": "COSMOS 2454",
        "group": "musson",
        "lat": 24.49838110208276,
        "lon": -19.136416438741435,
        "alt_km": 930.1084403169843,
        "timestamp": "2025-12-18T17:50:15.226941+00:00",
        "meta_object_name": "COSMOS 2454",
        "meta_object_id": "2009-039A",
        "meta_epoch": "2025-12-18T05:49:48.324288",
        "meta_mean_motion": 13.89929334,
        "meta_eccentricity": 0.0020316,
        "meta_inclination": 82.9553,
        "meta_ra_of_asc_node": 164.4731,
        "meta_arg_of_pericenter": 59.0531,
        "meta_mean_anomaly": 113.9183,
        "meta_ephemeris_type": 0,
        "meta_classification_type": "U",
        "meta_norad_cat_id": 35635,
        "meta_element_set_no": 999,
        "meta_rev_at_epoch": 83226,
        "meta_bstar": 4.8656636e-05,
        "meta_mean_motion_dot": 7.6e-07,
        "meta_mean_motion_ddot": 0,
        "tle_line1": "1 35635U 09039A   25352.24292042  .00000076  00000+0  48657-4 0  9991",
        "tle_line2": "2 35635  82.9553 164.4731 0020316  59.0531 113.9183 13.89929334832265"
      },
      "geometry": {
        "type": "Point",
        "coordinates": [
          -19.136416438741435,
          24.49838110208276
        ]
      }
    },
    {
      "type": "Feature",
      "properties": {
        "norad_id": 36519,
        "name": "COSMOS 2463",
        "group": "musson",
        "lat": 19.454598913537847,
        "lon": -160.20044468526476,
        "alt_km": 1002.6340367300882,
        "timestamp": "2025-12-18T17:50:15.226951+00:00",
        "meta_object_name": "COSMOS 2463",
        "meta_object_id": "2010-017A",
        "meta_epoch": "2025-12-18T05:08:19.852224",
        "meta_mean_motion": 13.71649666,
        "meta_eccentricity": 0.00347384,
        "meta_inclination": 82.9607,
        "meta_ra_of_asc_node": 22.6896,
        "meta_arg_of_pericenter": 272.2904,
        "meta_mean_anomaly": 157.1092,
        "meta_ephemeris_type": 0,
        "meta_classification_type": "U",
        "meta_norad_cat_id": 36519,
        "meta_element_set_no": 999,
        "meta_rev_at_epoch": 78312,
        "meta_bstar": 6.4066563e-05,
        "meta_mean_motion_dot": 7.3e-07,
        "meta_mean_motion_ddot": 0,
        "tle_line1": "1 36519U 10017A   25352.21411866  .00000073  00000+0  64067-4 0  9995",
        "tle_line2": "2 36519  82.9607  22.6896 0034738 272.2904 157.1092 13.71649666783127"
      },
      "geometry": {
        "type": "Point",
        "coordinates": [
          -160.20044468526476,
          19.454598913537847
        ]
      }
    }
  ]
}